0 COSMOS 1950
1 19195U 88046A   13282.85973495 -.00000044  00000-0 -19832-3 0  3188
2 19195 073.6008 197.0467 0024129 340.9747 087.9562 12.40870883149065
0 COSMOS 1950
1 19195U 88046A   13287.15636427  .00000009  00000-0  19692-3 0  3203
2 19195 073.6007 191.2876 0024201 334.9724 201.4374 12.40870348149591
0 COSMOS 1950
1 19195U 88046A   13289.17003606  .00000020  00000-0  27384-3 0  3215
2 19195 073.6002 188.5885 0024218 332.1157 196.7558 12.40870319149849
0 COSMOS 1950
1 19195U 88046A   13291.18203537  .00000015  00000-0  23769-3 0  3222
2 19195 073.5998 185.8916 0024223 329.3649 184.4989 12.40870636150090
0 COSMOS 1950
1 19195U 88046A   13293.20121822 -.00000024  00000-0 -45591-4 0  3234
2 19195 073.5995 183.1850 0024258 326.5244 204.4117 12.40870969150346
0 COSMOS 1950
1 19195U 88046A   13296.18009961 -.00000034  00000-0 -12363-3 0  3245
2 19195 073.5993 179.1919 0024303 322.3825 191.3597 12.40871046150719
